1 26407U 00040A   19222.40554222 -.00000081  00000-0  00000+0 0  9992
2 26407  56.2204 314.4626 0192772 276.1290  83.7309  2.00560368139745
1 26407U 00040A   19222.53651972 -.00000080  00000-0  00000+0 0  9995
2 26407  56.2203 314.4575 0192783 276.1304 178.2997  2.00560365139745
1 26407U 00040A   19223.91257892 -.00000073  00000-0  00000+0 0  9993
2 26407  56.2194 314.4034 0192783 276.1388  91.8551  2.00560402139777
1 26407U 00040A   19223.91257892 -.00000073  00000-0  00000-0 0  9994
2 26407  56.2194 314.4034 0192783 276.1388  91.8551  2.00560402139788
1 26407U 00040A   19226.52896174 -.00000057  00000-0  00000+0 0  9997
2 26407  56.2175 314.3006 0192824 276.1558 180.9601  2.00560449139822
1 26407U 00040A   19227.42418095 -.00000054  00000-0  00000+0 0  9996
2 26407  56.2169 314.2655 0192843 276.1620 107.3342  2.00560459139843
1 26407U 00040A   19228.43109744 -.00000052  00000-0  00000-0 0  9995
2 26407  56.2162 314.2259 0192855 276.1691 114.3569  2.00560459139879
1 26407U 00040A   19229.47447243 -.00000051  00000-0  00000+0 0  9997
2 26407  56.2156 314.1850 0192863 276.1756 147.7044  2.00560452139881
1 26407U 00040A   19229.81882801 -.00000051  00000-0  00000-0 0  9999
2 26407  56.2153 314.1714 0192875 276.1779  36.3390  2.00560450139891
1 26407U 00040A   19230.50911406 -.00000051  00000-0  00000-0 0  9991
2 26407  56.2149 314.1443 0192879 276.1823 174.7458  2.00560435139906
1 26407U 00040A   19231.39220855 -.00000050  00000-0  00000+0 0  9998
2 26407  56.2143 314.1097 0192887 276.1891  92.3647  2.00560418139927
1 26407U 00040A   19231.39220855 -.00000050  00000-0  00000-0 0  9999
2 26407  56.2143 314.1097 0192887 276.1891  92.3647  2.00560418139938
1 26407U 00040A   19232.37097013 -.00000049  00000-0  00000+0 0  9993
2 26407  56.2136 314.0712 0192899 276.1953  79.0593  2.00560396139943
1 26407U 00040A   19232.37097013 -.00000049  00000-0  00000-0 0  9994
2 26407  56.2136 314.0712 0192899 276.1953  79.0593  2.00560396139943
1 26407U 00040A   19234.36992108 -.00000045  00000-0  00000+0 0  9999
2 26407  56.2122 313.9926 0192926 276.2085  82.3599  2.00560340139987
1 26407U 00040A   19235.86550505 -.00000039  00000-0  00000-0 0  9990
2 26407  56.2112 313.9338 0192956 276.2205  82.2126  2.00560293140029
1 26407U 00040A   19236.37726892 -.00000036  00000-0  00000+0 0  9997
2 26407  56.2108 313.9137 0192961 276.2247  91.7201  2.00560277140024
1 26407U 00040A   19237.85360608 -.00000029  00000-0  00000-0 0  9993
2 26407  56.2098 313.8555 0192974 276.2384  77.6743  2.00560235140052
1 26407U 00040A   19238.47840795 -.00000026  00000-0  00000+0 0  9998
2 26407  56.2094 313.8309 0192992 276.2436 168.7980  2.00560214140066
1 26407U 00040A   19239.65493571 -.00000022  00000-0  00000+0 0  9991
2 26407  56.2086 313.7847 0193039 276.2546 298.2812  2.00560182140087
1 26407U 00040A   19240.35212826 -.00000022  00000-0  00000+0 0  9992
2 26407  56.2081 313.7572 0193045 276.2605  81.6730  2.00560169140101
1 26407U 00040A   19241.35188344 -.00000023  00000-0  00000+0 0  9991
2 26407  56.2074 313.7179 0193061 276.2702  83.5218  2.00560152140128
1 26407U 00040A   19242.79530064 -.00000030  00000-0  00000+0 0  9998
2 26407  56.2063 313.6610 0193082 276.2846  45.7056  2.00560141140158
1 26407U 00040A   19242.79530064 -.00000030  00000-0  00000-0 0  9999
2 26407  56.2063 313.6610 0193082 276.2846  45.7056  2.00560141140158
1 26407U 00040A   19244.33035556 -.00000043  00000-0  00000+0 0  9990
2 26407  56.2052 313.6006 0193113 276.2983  74.0556  2.00560137140180
1 26407U 00040A   19244.83865271 -.00000047  00000-0  00000+0 0  9994
2 26407  56.2049 313.5806 0193118 276.3037  81.0586  2.00560140140195
1 26407U 00040A   19244.83865271 -.00000047  00000-0  00000-0 0  9995
2 26407  56.2049 313.5806 0193118 276.3037  81.0586  2.00560140140195
1 26407U 00040A   19247.33265264 -.00000064  00000-0  00000+0 0  9997
2 26407  56.2031 313.4824 0193154 276.3309  81.7875  2.00560175140249
1 26407U 00040A   19248.33332759 -.00000066  00000-0  00000+0 0  9994
2 26407  56.2025 313.4430 0193159 276.3426  84.2984  2.00560197140265
1 26407U 00040A   19249.56397552 -.00000063  00000-0  00000+0 0  9999
2 26407  56.2017 313.3945 0193174 276.3553 252.8567  2.00560218140280
1 26407U 00040A   19250.42238728 -.00000058  00000-0  00000+0 0  9999
2 26407  56.2011 313.3607 0193184 276.3650 152.6506  2.00560242140308
1 26407U 00040A   19250.99474069 -.00000055  00000-0  00000+0 0  9998
2 26407  56.2007 313.3382 0193224 276.3734 205.9011  2.00560246140319
1 26407U 00040A   19252.44205698 -.00000046  00000-0  00000+0 0  9990
2 26407  56.1997 313.2812 0193241 276.3882 170.8998  2.00560281140342
1 26407U 00040A   19253.42911729 -.00000040  00000-0  00000+0 0  9992
2 26407  56.1990 313.2423 0193253 276.3979 163.5825  2.00560300140365
1 26407U 00040A   19253.81198594 -.00000039  00000-0  00000+0 0  9990
2 26407  56.1988 313.2273 0193261 276.4030  80.0221  2.00560308140375
1 26407U 00040A   19253.81198594 -.00000039  00000-0  00000-0 0  9991
2 26407  56.1988 313.2273 0193261 276.4030  80.0221  2.00560308140375
1 26407U 00040A   19254.44199435 -.00000037  00000-0  00000-0 0  9994
2 26407  56.1984 313.2025 0193271 276.4095 174.9040  2.00560312140397
1 26407U 00040A   19255.37992251 -.00000034  00000-0  00000+0 0  9990
2 26407  56.1977 313.1656 0193279 276.4194 132.1114  2.00560319140403
1 26407U 00040A   19256.38907309 -.00000034  00000-0  00000+0 0  9992
2 26407  56.1971 313.1259 0193283 276.4294 140.7438  2.00560317140426
1 26407U 00040A   19257.40655696 -.00000033  00000-0  00000+0 0  9994
2 26407  56.1964 313.0859 0193289 276.4401 155.3925  2.00560308140444
1 26407U 00040A   19258.29863875 -.00000033  00000-0  00000+0 0  9992
2 26407  56.1959 313.0508 0193286 276.4500  79.4971  2.00560297140462
1 26407U 00040A   19258.80778639 -.00000033  00000-0  00000-0 0  9993
2 26407  56.1956 313.0307 0193288 276.4555  87.1141  2.00560286140483
1 26407U 00040A   19259.30369463 -.00000033  00000-0  00000+0 0  9999
2 26407  56.1952 313.0112 0193282 276.4602  85.1727  2.00560276140487
1 26407U 00040A   19260.76748255 -.00000030  00000-0  00000+0 0  9998
2 26407  56.1943 312.9536 0193281 276.4745  62.0650  2.00560243140519
1 26407U 00040A   19260.76748255 -.00000030  00000-0  00000-0 0  9999
2 26407  56.1943 312.9536 0193281 276.4745  62.0650  2.00560243140519
1 26407U 00040A   19262.45301109 -.00000024  00000-0  00000-0 0  9993
2 26407  56.1932 312.8873 0193384 276.5069 199.0423  2.00560171140557
1 26407U 00040A   19263.49216344 -.00000020  00000-0  00000+0 0  9999
2 26407  56.1925 312.8464 0193387 276.5186 229.3352  2.00560141140564
1 26407U 00040A   19263.79032434 -.00000018  00000-0  00000-0 0  9996
2 26407  56.1923 312.8346 0193387 276.5229  84.6136  2.00560133140584
1 26407U 00040A   19264.27632139 -.00000016  00000-0  00000+0 0  9995
2 26407  56.1920 312.8155 0193388 276.5282  75.5152  2.00560117140588
1 26407U 00040A   19265.42635750 -.00000010  00000-0  00000+0 0  9999
2 26407  56.1912 312.7702 0193387 276.5353 185.8744  2.00560078140605
1 26407U 00040A   19266.28396799 -.00000007  00000-0  00000+0 0  9997
2 26407  56.1906 312.7364 0193385 276.5467  85.0878  2.00560056140623
1 26407U 00040A   19267.51095616 -.00000004  00000-0  00000+0 0  9995
2 26407  56.1898 312.6881 0193363 276.5574 251.0054  2.00560031140647
1 26407U 00040A   19268.50918833 -.00000005  00000-0  00000+0 0  9991
2 26407  56.1891 312.6488 0193366 276.5700 251.7513  2.00560013140666
1 26407U 00040A   19269.38227426 -.00000008  00000-0  00000+0 0  9992
2 26407  56.1885 312.6144 0193377 276.5812 162.1385  2.00560000140684
1 26407U 00040A   19270.26406726 -.00000014  00000-0  00000+0 0  9990
2 26407  56.1879 312.5797 0193379 276.5929  78.8121  2.00559996140707
1 26407U 00040A   19270.70339821 -.00000018  00000-0  00000-0 0  9995
2 26407  56.1876 312.5623 0193387 276.6000  36.0171  2.00559993140711
1 26407U 00040A   19271.25930389 -.00000023  00000-0  00000+0 0  9997
2 26407  56.1872 312.5405 0193388 276.6075  77.3928  2.00559993140727
1 26407U 00040A   19271.75851719 -.00000027  00000-0  00000+0 0  9995
2 26407  56.1869 312.5208 0193379 276.6125  77.8373  2.00559995140732
1 26407U 00040A   19271.75851719 -.00000027  00000-0  00000-0 0  9996
2 26407  56.1869 312.5208 0193379 276.6125  77.8373  2.00559995140732
1 26407U 00040A   19272.76359852 -.00000037  00000-0  00000-0 0  9990
2 26407  56.1862 312.4812 0193416 276.6305  83.5227  2.00559992140769
1 26407U 00040A   19273.35235645 -.00000042  00000-0  00000+0 0  9994
2 26407  56.1858 312.4580 0193417 276.6392 148.6177  2.00559999140767
1 26407U 00040A   19274.38802410 -.00000048  00000-0  00000+0 0  9994
2 26407  56.1851 312.4172 0193438 276.6571 176.3879  2.00560010140784
1 26407U 00040A   19274.90358763 -.00000050  00000-0  00000+0 0  9992
2 26407  56.1848 312.3968 0193442 276.6650 188.6347  2.00560018140790
1 26407U 00040A   19274.90358763 -.00000050  00000-0  00000-0 0  9993
2 26407  56.1848 312.3968 0193442 276.6650 188.6347  2.00560018140802
1 26407U 00040A   19278.48121163 -.00000040  00000-0  00000+0 0  9990
2 26407  56.1824 312.2558 0193423 276.7128 251.7563  2.00560109140869
1 26407U 00040A   19279.24450457 -.00000036  00000-0  00000+0 0  9991
2 26407  56.1819 312.2258 0193430 276.7231  82.8700  2.00560132140887
1 26407U 00040A   19279.80976668 -.00000033  00000-0  00000-0 0  9998
2 26407  56.1816 312.2036 0193439 276.7315 131.0005  2.00560140140907
1 26407U 00040A   19280.37905750 -.00000030  00000-0  00000+0 0  9992
2 26407  56.1812 312.1812 0193444 276.7394 182.0403  2.00560147140902
1 26407U 00040A   19280.70160591 -.00000029  00000-0  00000-0 0  9994
2 26407  56.1810 312.1685 0193455 276.7448  54.9259  2.00560153140914
1 26407U 00040A   19281.31985623 -.00000027  00000-0  00000+0 0  9990
2 26407  56.1806 312.1441 0193455 276.7536 141.3154  2.00560161140922
